STARLINK-30069          
1 56834U 23079M   26067.48212902 -.00002416  00000+0 -80472-4 0  9995
2 56834  42.9986 110.4464 0000469 272.6695  87.4103 15.26726881152740
STARLINK-31916          
1 59795U 24093P   26068.41689169  .00000055  00000+0  11522-4 0  9993
2 59795  43.0034 210.4390 0001198 249.4006 110.6718 15.27560366102653
