[{"OBJECT_NAME":"STARLINK-30069","OBJECT_ID":"2023-079M","EPOCH":"2026-03-08T11:34:15.947328","MEAN_MOTION":15.26726881,"ECCENTRICITY":4.69e-5,"INCLINATION":42.9986,"RA_OF_ASC_NODE":110.4464,"ARG_OF_PERICENTER":272.6695,"MEAN_ANOMALY":87.4103,"EPHEMERIS_TYPE":0,"CLASSIFICATION_TYPE":"U","NORAD_CAT_ID":56834,"ELEMENT_SET_NO":999,"REV_AT_EPOCH":15274,"BSTAR":-8.0472e-5,"MEAN_MOTION_DOT":-2.416e-5,"MEAN_MOTION_DDOT":0},{"OBJECT_NAME":"STARLINK-31916","OBJECT_ID":"2024-093P","EPOCH":"2026-03-09T10:00:19.442016","MEAN_MOTION":15.27560366,"ECCENTRICITY":0.00011981,"INCLINATION":43.0034,"RA_OF_ASC_NODE":210.439,"ARG_OF_PERICENTER":249.4006,"MEAN_ANOMALY":110.6718,"EPHEMERIS_TYPE":0,"CLASSIFICATION_TYPE":"U","NORAD_CAT_ID":59795,"ELEMENT_SET_NO":999,"REV_AT_EPOCH":10265,"BSTAR":1.1522163e-5,"MEAN_MOTION_DOT":5.5e-7,"MEAN_MOTION_DDOT":0}]
